[{
  "Postcode": "BL7",
  "Region": "Bolton",
  "Installation": "Available",
  "Postcode_group": "BL"
},
{
  "Postcode": "BL1",
  "Region": "Bolton",
  "Installation": "Available",
  "Postcode_group": "BL"
},
{
  "Postcode": "BL6",
  "Region": "Bolton",
  "Installation": "Available",
  "Postcode_group": "BL"
},
{
  "Postcode": "BL4",
  "Region": "Bolton",
  "Installation": "Available",
  "Postcode_group": "BL"
},
{
  "Postcode": "BL8",
  "Region": "Bolton",
  "Installation": "Available",
  "Postcode_group": "BL"
},
{
  "Postcode": "BL9",
  "Region": "Bolton",
  "Installation": "Available",
  "Postcode_group": "BL"
},
{
  "Postcode": "BL0",
  "Region": "Bolton",
  "Installation": "Available",
  "Postcode_group": "BL"
},
{
  "Postcode": "BL2",
  "Region": "Bolton",
  "Installation": "Available",
  "Postcode_group": "BL"
},
{
  "Postcode": "BL3",
  "Region": "Bolton",
  "Installation": "Available",
  "Postcode_group": "BL"
},
{
  "Postcode": "BL5",
  "Region": "Bolton",
  "Installation": "Available",
  "Postcode_group": "BL"
},
{
  "Postcode": "M19",
  "Region": "Manchester",
  "Installation": "Available",
  "Postcode_group": "M"
},
{
  "Postcode": "M24",
  "Region": "Manchester",
  "Installation": "Available",
  "Postcode_group": "M"
},
{
  "Postcode": "M26",
  "Region": "Manchester",
  "Installation": "Available",
  "Postcode_group": "M"
},
{
  "Postcode": "M31",
  "Region": "Manchester",
  "Installation": "Available",
  "Postcode_group": "M"
},
{
  "Postcode": "M16",
  "Region": "Manchester",
  "Installation": "Available",
  "Postcode_group": "M"
},
{
  "Postcode": "M28",
  "Region": "Manchester",
  "Installation": "Available",
  "Postcode_group": "M"
},
{
  "Postcode": "M33",
  "Region": "Manchester",
  "Installation": "Available",
  "Postcode_group": "M"
},
{
  "Postcode": "M32",
  "Region": "Manchester",
  "Installation": "Available",
  "Postcode_group": "M"
},
{
  "Postcode": "M43",
  "Region": "Manchester",
  "Installation": "Available",
  "Postcode_group": "M"
},
{
  "Postcode": "M44",
  "Region": "Manchester",
  "Installation": "Available",
  "Postcode_group": "M"
},
{
  "Postcode": "M7",
  "Region": "Manchester",
  "Installation": "Available",
  "Postcode_group": "M"
},
{
  "Postcode": "M4",
  "Region": "Manchester",
  "Installation": "Available",
  "Postcode_group": "M"
},
{
  "Postcode": "M11",
  "Region": "Manchester",
  "Installation": "Available",
  "Postcode_group": "M"
},
{
  "Postcode": "M21",
  "Region": "Manchester",
  "Installation": "Available",
  "Postcode_group": "M"
},
{
  "Postcode": "M25",
  "Region": "Manchester",
  "Installation": "Available",
  "Postcode_group": "M"
},
{
  "Postcode": "M3",
  "Region": "Manchester",
  "Installation": "Available",
  "Postcode_group": "M"
},
{
  "Postcode": "M5",
  "Region": "Manchester",
  "Installation": "Available",
  "Postcode_group": "M"
},
{
  "Postcode": "M1",
  "Region": "Manchester",
  "Installation": "Available",
  "Postcode_group": "M"
},
{
  "Postcode": "M13",
  "Region": "Manchester",
  "Installation": "Available",
  "Postcode_group": "M"
},
{
  "Postcode": "M22",
  "Region": "Manchester",
  "Installation": "Available",
  "Postcode_group": "M"
},
{
  "Postcode": "M34",
  "Region": "Manchester",
  "Installation": "Available",
  "Postcode_group": "M"
},
{
  "Postcode": "M35",
  "Region": "Manchester",
  "Installation": "Available",
  "Postcode_group": "M"
},
{
  "Postcode": "M46",
  "Region": "Manchester",
  "Installation": "Available",
  "Postcode_group": "M"
},
{
  "Postcode": "OL12",
  "Region": "Oldham",
  "Installation": "Available",
  "Postcode_group": "OL"
},
{
  "Postcode": "OL6",
  "Region": "Oldham",
  "Installation": "Available",
  "Postcode_group": "OL"
},
{
  "Postcode": "M90",
  "Region": "Manchester",
  "Installation": "Available",
  "Postcode_group": "M"
},
{
  "Postcode": "M18",
  "Region": "Manchester",
  "Installation": "Available",
  "Postcode_group": "M"
},
{
  "Postcode": "M50",
  "Region": "Manchester",
  "Installation": "Available",
  "Postcode_group": "M"
},
{
  "Postcode": "OL5",
  "Region": "Oldham",
  "Installation": "Available",
  "Postcode_group": "OL"
},
{
  "Postcode": "OL3",
  "Region": "Oldham",
  "Installation": "Available",
  "Postcode_group": "OL"
},
{
  "Postcode": "OL10",
  "Region": "Oldham",
  "Installation": "Available",
  "Postcode_group": "OL"
},
{
  "Postcode": "M12",
  "Region": "Manchester",
  "Installation": "Available",
  "Postcode_group": "M"
},
{
  "Postcode": "M15",
  "Region": "Manchester",
  "Installation": "Available",
  "Postcode_group": "M"
},
{
  "Postcode": "M20",
  "Region": "Manchester",
  "Installation": "Available",
  "Postcode_group": "M"
},
{
  "Postcode": "M6",
  "Region": "Manchester",
  "Installation": "Available",
  "Postcode_group": "M"
},
{
  "Postcode": "M27",
  "Region": "Manchester",
  "Installation": "Available",
  "Postcode_group": "M"
},
{
  "Postcode": "M29",
  "Region": "Manchester",
  "Installation": "Available",
  "Postcode_group": "M"
},
{
  "Postcode": "M41",
  "Region": "Manchester",
  "Installation": "Available",
  "Postcode_group": "M"
},
{
  "Postcode": "M23",
  "Region": "Manchester",
  "Installation": "Available",
  "Postcode_group": "M"
},
{
  "Postcode": "M2",
  "Region": "Manchester",
  "Installation": "Available",
  "Postcode_group": "M"
},
{
  "Postcode": "M9",
  "Region": "Manchester",
  "Installation": "Available",
  "Postcode_group": "M"
},
{
  "Postcode": "M40",
  "Region": "Manchester",
  "Installation": "Available",
  "Postcode_group": "M"
},
{
  "Postcode": "M30",
  "Region": "Manchester",
  "Installation": "Available",
  "Postcode_group": "M"
},
{
  "Postcode": "M45",
  "Region": "Manchester",
  "Installation": "Available",
  "Postcode_group": "M"
},
{
  "Postcode": "M8",
  "Region": "Manchester",
  "Installation": "Available",
  "Postcode_group": "M"
},
{
  "Postcode": "M14",
  "Region": "Manchester",
  "Installation": "Available",
  "Postcode_group": "M"
},
{
  "Postcode": "M17",
  "Region": "Manchester",
  "Installation": "Available",
  "Postcode_group": "M"
},
{
  "Postcode": "M38",
  "Region": "Manchester",
  "Installation": "Available",
  "Postcode_group": "M"
},
{
  "Postcode": "OL4",
  "Region": "Oldham",
  "Installation": "Available",
  "Postcode_group": "OL"
},
{
  "Postcode": "OL1",
  "Region": "Oldham",
  "Installation": "Available",
  "Postcode_group": "OL"
},
{
  "Postcode": "OL14",
  "Region": "Oldham",
  "Installation": "Available",
  "Postcode_group": "OL"
},
{
  "Postcode": "OL11",
  "Region": "Oldham",
  "Installation": "Available",
  "Postcode_group": "OL"
},
{
  "Postcode": "OL16",
  "Region": "Oldham",
  "Installation": "Available",
  "Postcode_group": "OL"
},
{
  "Postcode": "OL15",
  "Region": "Oldham",
  "Installation": "Available",
  "Postcode_group": "OL"
},
{
  "Postcode": "OL2",
  "Region": "Oldham",
  "Installation": "Available",
  "Postcode_group": "OL"
},
{
  "Postcode": "OL9",
  "Region": "Oldham",
  "Installation": "Available",
  "Postcode_group": "OL"
},
{
  "Postcode": "OL8",
  "Region": "Oldham",
  "Installation": "Available",
  "Postcode_group": "OL"
},
{
  "Postcode": "OL13",
  "Region": "Oldham",
  "Installation": "Available",
  "Postcode_group": "OL"
},
{
  "Postcode": "OL7",
  "Region": "Oldham",
  "Installation": "Available",
  "Postcode_group": "OL"
},
{
  "Postcode": "SK15",
  "Region": "Stockport",
  "Installation": "Available",
  "Postcode_group": "SK"
},
{
  "Postcode": "SK5",
  "Region": "Stockport",
  "Installation": "Available",
  "Postcode_group": "SK"
},
{
  "Postcode": "SK13",
  "Region": "Stockport",
  "Installation": "Available",
  "Postcode_group": "SK"
},
{
  "Postcode": "SK12",
  "Region": "Stockport",
  "Installation": "Available",
  "Postcode_group": "SK"
},
{
  "Postcode": "SK16",
  "Region": "Stockport",
  "Installation": "Available",
  "Postcode_group": "SK"
},
{
  "Postcode": "SK8",
  "Region": "Stockport",
  "Installation": "Available",
  "Postcode_group": "SK"
},
{
  "Postcode": "SK7",
  "Region": "Stockport",
  "Installation": "Available",
  "Postcode_group": "SK"
},
{
  "Postcode": "WA12",
  "Region": "Warrington",
  "Postcode_group": "WA",
  "Installation": "Available"
},
{
  "Postcode": "WA5",
  "Region": "Warrington",
  "Postcode_group": "WA",
  "Installation": "Available"
},
{
  "Postcode": "WN6",
  "Region": "Wigan",
  "Postcode_group": "WN",
  "Installation": "Available"
},
{
  "Postcode": "WN8",
  "Region": "Wigan",
  "Postcode_group": "WN",
  "Installation": "Available"
},
{
  "Postcode": "WA1",
  "Region": "Warrington",
  "Postcode_group": "WA",
  "Installation": "Available"
},
{
  "Postcode": "WA7",
  "Region": "Warrington",
  "Postcode_group": "WA",
  "Installation": "Available"
},
{
  "Postcode": "WA11",
  "Region": "Warrington",
  "Postcode_group": "WA",
  "Installation": "Available"
},
{
  "Postcode": "WA3",
  "Region": "Warrington",
  "Postcode_group": "WA",
  "Installation": "Available"
},
{
  "Postcode": "WN1",
  "Region": "Wigan",
  "Postcode_group": "WN",
  "Installation": "Available"
},
{
  "Postcode": "SK11",
  "Region": "Stockport",
  "Installation": "Available",
  "Postcode_group": "SK"
},
{
  "Postcode": "SK17",
  "Region": "Stockport",
  "Installation": "Available",
  "Postcode_group": "SK"
},
{
  "Postcode": "SK4",
  "Region": "Stockport",
  "Installation": "Available",
  "Postcode_group": "SK"
},
{
  "Postcode": "SK3",
  "Region": "Stockport",
  "Installation": "Available",
  "Postcode_group": "SK"
},
{
  "Postcode": "WA8",
  "Region": "Warrington",
  "Postcode_group": "WA",
  "Installation": "Available"
},
{
  "Postcode": "WN5",
  "Region": "Wigan",
  "Postcode_group": "WN",
  "Installation": "Available"
},
{
  "Postcode": "SK14",
  "Region": "Stockport",
  "Installation": "Available",
  "Postcode_group": "SK"
},
{
  "Postcode": "SK6",
  "Region": "Stockport",
  "Installation": "Available",
  "Postcode_group": "SK"
},
{
  "Postcode": "SK2",
  "Region": "Stockport",
  "Installation": "Available",
  "Postcode_group": "SK"
},
{
  "Postcode": "SK22",
  "Region": "Stockport",
  "Installation": "Available",
  "Postcode_group": "SK"
},
{
  "Postcode": "WA10",
  "Region": "Warrington",
  "Postcode_group": "WA",
  "Installation": "Available"
},
{
  "Postcode": "WN2",
  "Region": "Wigan",
  "Postcode_group": "WN",
  "Installation": "Available"
},
{
  "Postcode": "SK9",
  "Region": "Stockport",
  "Installation": "Available",
  "Postcode_group": "SK"
},
{
  "Postcode": "SK1",
  "Region": "Stockport",
  "Installation": "Available",
  "Postcode_group": "SK"
},
{
  "Postcode": "WA2",
  "Region": "Warrington",
  "Postcode_group": "WA",
  "Installation": "Available"
},
{
  "Postcode": "WN4",
  "Region": "Wigan",
  "Postcode_group": "WN",
  "Installation": "Available"
},
{
  "Postcode": "WA9",
  "Region": "Warrington",
  "Postcode_group": "WA",
  "Installation": "Available"
},
{
  "Postcode": "WA14",
  "Region": "Warrington",
  "Postcode_group": "WA",
  "Installation": "Available"
},
{
  "Postcode": "WA16",
  "Region": "Warrington",
  "Postcode_group": "WA",
  "Installation": "Available"
},
{
  "Postcode": "WN7",
  "Region": "Wigan",
  "Postcode_group": "WN",
  "Installation": "Available"
},
{
  "Postcode": "SK23",
  "Region": "Stockport",
  "Installation": "Available",
  "Postcode_group": "SK"
},
{
  "Postcode": "SK10",
  "Region": "Stockport",
  "Installation": "Available",
  "Postcode_group": "SK"
},
{
  "Postcode": "WA15",
  "Region": "Warrington",
  "Postcode_group": "WA",
  "Installation": "Available"
},
{
  "Postcode": "WN3",
  "Region": "Wigan",
  "Postcode_group": "WN",
  "Installation": "Available"
},
{
  "Postcode": "WA13",
  "Region": "Warrington",
  "Postcode_group": "WA",
  "Installation": "Available"
},
{
  "Postcode": "WA4",
  "Region": "Warrington",
  "Postcode_group": "WA",
  "Installation": "Available"
},
{
  "Postcode": "WA6",
  "Region": "Warrington",
  "Postcode_group": "WA",
  "Installation": "Available"
}]