[{
  "Postcode": "AB22",
  "Region": "Aberdeen",
  "Zone": "Red",
  "Postcode_group": "AB"
},
{
  "Postcode": "BT1",
  "Region": "Northern Ireland",
  "Zone": "Red",
  "Postcode_group": "BT"
},
{
  "Postcode": "BT24",
  "Region": "Northern Ireland",
  "Zone": "Red",
  "Postcode_group": "BT"
},
{
  "Postcode": "AB33",
  "Region": "Aberdeen",
  "Zone": "Red",
  "Postcode_group": "AB"
},
{
  "Postcode": "BT25",
  "Region": "Northern Ireland",
  "Zone": "Red",
  "Postcode_group": "BT"
},
{
  "Postcode": "BT77",
  "Region": "Northern Ireland",
  "Zone": "Red",
  "Postcode_group": "BT"
},
{
  "Postcode": "BT27",
  "Region": "Northern Ireland",
  "Zone": "Red",
  "Postcode_group": "BT"
},
{
  "Postcode": "BT3",
  "Region": "Northern Ireland",
  "Zone": "Red",
  "Postcode_group": "BT"
},
{
  "Postcode": "BT31",
  "Region": "Northern Ireland",
  "Zone": "Red",
  "Postcode_group": "BT"
},
{
  "Postcode": "BT49",
  "Region": "Northern Ireland",
  "Zone": "Red",
  "Postcode_group": "BT"
},
{
  "Postcode": "BT62",
  "Region": "Northern Ireland",
  "Zone": "Red",
  "Postcode_group": "BT"
},
{
  "Postcode": "BT93",
  "Region": "Northern Ireland",
  "Zone": "Red",
  "Postcode_group": "BT"
},
{
  "Postcode": "AB32",
  "Region": "Aberdeen",
  "Zone": "Red",
  "Postcode_group": "AB"
},
{
  "Postcode": "AB38",
  "Region": "Aberdeen",
  "Zone": "Red",
  "Postcode_group": "AB"
},
{
  "Postcode": "AB35",
  "Region": "Aberdeen",
  "Zone": "Red",
  "Postcode_group": "AB"
},
{
  "Postcode": "AB54",
  "Region": "Aberdeen",
  "Zone": "Red",
  "Postcode_group": "AB"
},
{
  "Postcode": "BT15",
  "Region": "Northern Ireland",
  "Zone": "Red",
  "Postcode_group": "BT"
},
{
  "Postcode": "BT17",
  "Region": "Northern Ireland",
  "Zone": "Red",
  "Postcode_group": "BT"
},
{
  "Postcode": "BT23",
  "Region": "Northern Ireland",
  "Zone": "Red",
  "Postcode_group": "BT"
},
{
  "Postcode": "BT61",
  "Region": "Northern Ireland",
  "Zone": "Red",
  "Postcode_group": "BT"
},
{
  "Postcode": "BT63",
  "Region": "Northern Ireland",
  "Zone": "Red",
  "Postcode_group": "BT"
},
{
  "Postcode": "BT64",
  "Region": "Northern Ireland",
  "Zone": "Red",
  "Postcode_group": "BT"
},
{
  "Postcode": "BT7",
  "Region": "Northern Ireland",
  "Zone": "Red",
  "Postcode_group": "BT"
},
{
  "Postcode": "BT76",
  "Region": "Northern Ireland",
  "Zone": "Red",
  "Postcode_group": "BT"
},
{
  "Postcode": "BT82",
  "Region": "Northern Ireland",
  "Zone": "Red",
  "Postcode_group": "BT"
},
{
  "Postcode": "DD1",
  "Region": "Dundee",
  "Zone": "Red",
  "Postcode_group": "DD"
},
{
  "Postcode": "DD4",
  "Region": "Dundee",
  "Zone": "Red",
  "Postcode_group": "DD"
},
{
  "Postcode": "DD11",
  "Region": "Dundee",
  "Zone": "Red",
  "Postcode_group": "DD"
},
{
  "Postcode": "DD6",
  "Region": "Dundee",
  "Zone": "Red",
  "Postcode_group": "DD"
},
{
  "Postcode": "FK17",
  "Region": "Falkirk",
  "Zone": "Red",
  "Postcode_group": "FK"
},
{
  "Postcode": "FK2",
  "Region": "Falkirk",
  "Zone": "Red",
  "Postcode_group": "FK"
},
{
  "Postcode": "FK20",
  "Region": "Falkirk",
  "Zone": "Red",
  "Postcode_group": "FK"
},
{
  "Postcode": "AB13",
  "Region": "Aberdeen",
  "Zone": "Red",
  "Postcode_group": "AB"
},
{
  "Postcode": "AB21",
  "Region": "Aberdeen",
  "Zone": "Red",
  "Postcode_group": "AB"
},
{
  "Postcode": "DD2",
  "Region": "Dundee",
  "Zone": "Red",
  "Postcode_group": "DD"
},
{
  "Postcode": "DD3",
  "Region": "Dundee",
  "Zone": "Red",
  "Postcode_group": "DD"
},
{
  "Postcode": "FK10",
  "Region": "Falkirk",
  "Zone": "Red",
  "Postcode_group": "FK"
},
{
  "Postcode": "FK13",
  "Region": "Falkirk",
  "Zone": "Red",
  "Postcode_group": "FK"
},
{
  "Postcode": "FK14",
  "Region": "Falkirk",
  "Zone": "Red",
  "Postcode_group": "FK"
},
{
  "Postcode": "FK4",
  "Region": "Falkirk",
  "Zone": "Red",
  "Postcode_group": "FK"
},
{
  "Postcode": "FK5",
  "Region": "Falkirk",
  "Zone": "Red",
  "Postcode_group": "FK"
},
{
  "Postcode": "AB25",
  "Region": "Aberdeen",
  "Zone": "Red",
  "Postcode_group": "AB"
},
{
  "Postcode": "AB41",
  "Region": "Aberdeen",
  "Zone": "Red",
  "Postcode_group": "AB"
},
{
  "Postcode": "AB15",
  "Region": "Aberdeen",
  "Zone": "Red",
  "Postcode_group": "AB"
},
{
  "Postcode": "AB16",
  "Region": "Aberdeen",
  "Zone": "Red",
  "Postcode_group": "AB"
},
{
  "Postcode": "AB34",
  "Region": "Aberdeen",
  "Zone": "Red",
  "Postcode_group": "AB"
},
{
  "Postcode": "AB53",
  "Region": "Aberdeen",
  "Zone": "Red",
  "Postcode_group": "AB"
},
{
  "Postcode": "BT38",
  "Region": "Northern Ireland",
  "Zone": "Red",
  "Postcode_group": "BT"
},
{
  "Postcode": "BT41",
  "Region": "Northern Ireland",
  "Zone": "Red",
  "Postcode_group": "BT"
},
{
  "Postcode": "BT74",
  "Region": "Northern Ireland",
  "Zone": "Red",
  "Postcode_group": "BT"
},
{
  "Postcode": "BT92",
  "Region": "Northern Ireland",
  "Zone": "Red",
  "Postcode_group": "BT"
},
{
  "Postcode": "BT94",
  "Region": "Northern Ireland",
  "Zone": "Red",
  "Postcode_group": "BT"
},
{
  "Postcode": "BT11",
  "Region": "Northern Ireland",
  "Zone": "Red",
  "Postcode_group": "BT"
},
{
  "Postcode": "BT28",
  "Region": "Northern Ireland",
  "Zone": "Red",
  "Postcode_group": "BT"
},
{
  "Postcode": "AB31",
  "Region": "Aberdeen",
  "Zone": "Red",
  "Postcode_group": "AB"
},
{
  "Postcode": "BT14",
  "Region": "Northern Ireland",
  "Zone": "Red",
  "Postcode_group": "BT"
},
{
  "Postcode": "BT9",
  "Region": "Northern Ireland",
  "Zone": "Red",
  "Postcode_group": "BT"
},
{
  "Postcode": "BT20",
  "Region": "Northern Ireland",
  "Zone": "Red",
  "Postcode_group": "BT"
},
{
  "Postcode": "BT35",
  "Region": "Northern Ireland",
  "Zone": "Red",
  "Postcode_group": "BT"
},
{
  "Postcode": "BT46",
  "Region": "Northern Ireland",
  "Zone": "Red",
  "Postcode_group": "BT"
},
{
  "Postcode": "BT52",
  "Region": "Northern Ireland",
  "Zone": "Red",
  "Postcode_group": "BT"
},
{
  "Postcode": "BT65",
  "Region": "Northern Ireland",
  "Zone": "Red",
  "Postcode_group": "BT"
},
{
  "Postcode": "DD9",
  "Region": "Dundee",
  "Zone": "Red",
  "Postcode_group": "DD"
},
{
  "Postcode": "FK18",
  "Region": "Falkirk",
  "Zone": "Red",
  "Postcode_group": "FK"
},
{
  "Postcode": "AB23",
  "Region": "Aberdeen",
  "Zone": "Red",
  "Postcode_group": "AB"
},
{
  "Postcode": "AB11",
  "Region": "Aberdeen",
  "Zone": "Red",
  "Postcode_group": "AB"
},
{
  "Postcode": "AB24",
  "Region": "Aberdeen",
  "Zone": "Red",
  "Postcode_group": "AB"
},
{
  "Postcode": "BT18",
  "Region": "Northern Ireland",
  "Zone": "Red",
  "Postcode_group": "BT"
},
{
  "Postcode": "AB55",
  "Region": "Aberdeen",
  "Zone": "Red",
  "Postcode_group": "AB"
},
{
  "Postcode": "AB56",
  "Region": "Aberdeen",
  "Zone": "Red",
  "Postcode_group": "AB"
},
{
  "Postcode": "BT26",
  "Region": "Northern Ireland",
  "Zone": "Red",
  "Postcode_group": "BT"
},
{
  "Postcode": "BT30",
  "Region": "Northern Ireland",
  "Zone": "Red",
  "Postcode_group": "BT"
},
{
  "Postcode": "BT40",
  "Region": "Northern Ireland",
  "Zone": "Red",
  "Postcode_group": "BT"
},
{
  "Postcode": "BT42",
  "Region": "Northern Ireland",
  "Zone": "Red",
  "Postcode_group": "BT"
},
{
  "Postcode": "BT53",
  "Region": "Northern Ireland",
  "Zone": "Red",
  "Postcode_group": "BT"
},
{
  "Postcode": "BT66",
  "Region": "Northern Ireland",
  "Zone": "Red",
  "Postcode_group": "BT"
},
{
  "Postcode": "BT10",
  "Region": "Northern Ireland",
  "Zone": "Red",
  "Postcode_group": "BT"
},
{
  "Postcode": "BT12",
  "Region": "Northern Ireland",
  "Zone": "Red",
  "Postcode_group": "BT"
},
{
  "Postcode": "BT21",
  "Region": "Northern Ireland",
  "Zone": "Red",
  "Postcode_group": "BT"
},
{
  "Postcode": "BT44",
  "Region": "Northern Ireland",
  "Zone": "Red",
  "Postcode_group": "BT"
},
{
  "Postcode": "BT47",
  "Region": "Northern Ireland",
  "Zone": "Red",
  "Postcode_group": "BT"
},
{
  "Postcode": "BT60",
  "Region": "Northern Ireland",
  "Zone": "Red",
  "Postcode_group": "BT"
},
{
  "Postcode": "BT69",
  "Region": "Northern Ireland",
  "Zone": "Red",
  "Postcode_group": "BT"
},
{
  "Postcode": "BT8",
  "Region": "Northern Ireland",
  "Zone": "Red",
  "Postcode_group": "BT"
},
{
  "Postcode": "AB43",
  "Region": "Aberdeen",
  "Zone": "Red",
  "Postcode_group": "AB"
},
{
  "Postcode": "AB44",
  "Region": "Aberdeen",
  "Zone": "Red",
  "Postcode_group": "AB"
},
{
  "Postcode": "BT32",
  "Region": "Northern Ireland",
  "Zone": "Red",
  "Postcode_group": "BT"
},
{
  "Postcode": "BT33",
  "Region": "Northern Ireland",
  "Zone": "Red",
  "Postcode_group": "BT"
},
{
  "Postcode": "BT5",
  "Region": "Northern Ireland",
  "Zone": "Red",
  "Postcode_group": "BT"
},
{
  "Postcode": "BT22",
  "Region": "Northern Ireland",
  "Zone": "Red",
  "Postcode_group": "BT"
},
{
  "Postcode": "BT29",
  "Region": "Northern Ireland",
  "Zone": "Red",
  "Postcode_group": "BT"
},
{
  "Postcode": "BT48",
  "Region": "Northern Ireland",
  "Zone": "Red",
  "Postcode_group": "BT"
},
{
  "Postcode": "BT54",
  "Region": "Northern Ireland",
  "Zone": "Red",
  "Postcode_group": "BT"
},
{
  "Postcode": "BT67",
  "Region": "Northern Ireland",
  "Zone": "Red",
  "Postcode_group": "BT"
},
{
  "Postcode": "FK12",
  "Region": "Falkirk",
  "Zone": "Red",
  "Postcode_group": "FK"
},
{
  "Postcode": "FK15",
  "Region": "Falkirk",
  "Zone": "Red",
  "Postcode_group": "FK"
},
{
  "Postcode": "FK3",
  "Region": "Falkirk",
  "Zone": "Red",
  "Postcode_group": "FK"
},
{
  "Postcode": "FK19",
  "Region": "Falkirk",
  "Zone": "Red",
  "Postcode_group": "FK"
},
{
  "Postcode": "DD7",
  "Region": "Dundee",
  "Zone": "Red",
  "Postcode_group": "DD"
},
{
  "Postcode": "DD8",
  "Region": "Dundee",
  "Zone": "Red",
  "Postcode_group": "DD"
},
{
  "Postcode": "DD5",
  "Region": "Dundee",
  "Zone": "Red",
  "Postcode_group": "DD"
},
{
  "Postcode": "FK11",
  "Region": "Falkirk",
  "Zone": "Red",
  "Postcode_group": "FK"
},
{
  "Postcode": "FK21",
  "Region": "Falkirk",
  "Zone": "Red",
  "Postcode_group": "FK"
},
{
  "Postcode": "AB51",
  "Region": "Aberdeen",
  "Zone": "Red",
  "Postcode_group": "AB"
},
{
  "Postcode": "AB52",
  "Region": "Aberdeen",
  "Zone": "Red",
  "Postcode_group": "AB"
},
{
  "Postcode": "AB30",
  "Region": "Aberdeen",
  "Zone": "Red",
  "Postcode_group": "AB"
},
{
  "Postcode": "AB36",
  "Region": "Aberdeen",
  "Zone": "Red",
  "Postcode_group": "AB"
},
{
  "Postcode": "AB37",
  "Region": "Aberdeen",
  "Zone": "Red",
  "Postcode_group": "AB"
},
{
  "Postcode": "BT13",
  "Region": "Northern Ireland",
  "Zone": "Red",
  "Postcode_group": "BT"
},
{
  "Postcode": "BT19",
  "Region": "Northern Ireland",
  "Zone": "Red",
  "Postcode_group": "BT"
},
{
  "Postcode": "BT36",
  "Region": "Northern Ireland",
  "Zone": "Red",
  "Postcode_group": "BT"
},
{
  "Postcode": "BT4",
  "Region": "Northern Ireland",
  "Zone": "Red",
  "Postcode_group": "BT"
},
{
  "Postcode": "BT45",
  "Region": "Northern Ireland",
  "Zone": "Red",
  "Postcode_group": "BT"
},
{
  "Postcode": "BT6",
  "Region": "Northern Ireland",
  "Zone": "Red",
  "Postcode_group": "BT"
},
{
  "Postcode": "BT16",
  "Region": "Northern Ireland",
  "Zone": "Red",
  "Postcode_group": "BT"
},
{
  "Postcode": "BT51",
  "Region": "Northern Ireland",
  "Zone": "Red",
  "Postcode_group": "BT"
},
{
  "Postcode": "BT56",
  "Region": "Northern Ireland",
  "Zone": "Red",
  "Postcode_group": "BT"
},
{
  "Postcode": "BT57",
  "Region": "Northern Ireland",
  "Zone": "Red",
  "Postcode_group": "BT"
},
{
  "Postcode": "BT68",
  "Region": "Northern Ireland",
  "Zone": "Red",
  "Postcode_group": "BT"
},
{
  "Postcode": "BT75",
  "Region": "Northern Ireland",
  "Zone": "Red",
  "Postcode_group": "BT"
},
{
  "Postcode": "BT78",
  "Region": "Northern Ireland",
  "Zone": "Red",
  "Postcode_group": "BT"
},
{
  "Postcode": "BT80",
  "Region": "Northern Ireland",
  "Zone": "Red",
  "Postcode_group": "BT"
},
{
  "Postcode": "AB45",
  "Region": "Aberdeen",
  "Zone": "Red",
  "Postcode_group": "AB"
},
{
  "Postcode": "AB12",
  "Region": "Aberdeen",
  "Zone": "Red",
  "Postcode_group": "AB"
},
{
  "Postcode": "AB14",
  "Region": "Aberdeen",
  "Zone": "Red",
  "Postcode_group": "AB"
},
{
  "Postcode": "AB39",
  "Region": "Aberdeen",
  "Zone": "Red",
  "Postcode_group": "AB"
},
{
  "Postcode": "AB42",
  "Region": "Aberdeen",
  "Zone": "Red",
  "Postcode_group": "AB"
},
{
  "Postcode": "BT34",
  "Region": "Northern Ireland",
  "Zone": "Red",
  "Postcode_group": "BT"
},
{
  "Postcode": "BT39",
  "Region": "Northern Ireland",
  "Zone": "Red",
  "Postcode_group": "BT"
},
{
  "Postcode": "BT43",
  "Region": "Northern Ireland",
  "Zone": "Red",
  "Postcode_group": "BT"
},
{
  "Postcode": "BT70",
  "Region": "Northern Ireland",
  "Zone": "Red",
  "Postcode_group": "BT"
},
{
  "Postcode": "BT71",
  "Region": "Northern Ireland",
  "Zone": "Red",
  "Postcode_group": "BT"
},
{
  "Postcode": "BT79",
  "Region": "Northern Ireland",
  "Zone": "Red",
  "Postcode_group": "BT"
},
{
  "Postcode": "DD10",
  "Region": "Dundee",
  "Zone": "Red",
  "Postcode_group": "DD"
},
{
  "Postcode": "FK1",
  "Region": "Falkirk",
  "Zone": "Red",
  "Postcode_group": "FK"
},
{
  "Postcode": "FK9",
  "Region": "Falkirk",
  "Zone": "Red",
  "Postcode_group": "FK"
},
{
  "Postcode": "FK8",
  "Region": "Falkirk",
  "Zone": "Red",
  "Postcode_group": "FK"
},
{
  "Postcode": "BT37",
  "Region": "Northern Ireland",
  "Zone": "Red",
  "Postcode_group": "BT"
},
{
  "Postcode": "BT55",
  "Region": "Northern Ireland",
  "Zone": "Red",
  "Postcode_group": "BT"
},
{
  "Postcode": "BT81",
  "Region": "Northern Ireland",
  "Zone": "Red",
  "Postcode_group": "BT"
},
{
  "Postcode": "FK16",
  "Region": "Falkirk",
  "Zone": "Red",
  "Postcode_group": "FK"
},
{
  "Postcode": "FK6",
  "Region": "Falkirk",
  "Zone": "Red",
  "Postcode_group": "FK"
},
{
  "Postcode": "FK7",
  "Region": "Falkirk",
  "Zone": "Red",
  "Postcode_group": "FK"
},
{
  "Postcode": "IV49",
  "Region": "Inverness",
  "Zone": "Red",
  "Postcode_group": "IV"
},
{
  "Postcode": "JE38",
  "Region": "Jersey",
  "Zone": "Red",
  "Postcode_group": "JE"
},
{
  "Postcode": "KW16",
  "Region": "Kirkwall",
  "Zone": "Red",
  "Postcode_group": "KW"
},
{
  "Postcode": "KW6",
  "Region": "Kirkwall",
  "Zone": "Red",
  "Postcode_group": "KW"
},
{
  "Postcode": "KY16",
  "Region": "Kirkcaldy",
  "Zone": "Red",
  "Postcode_group": "KY"
},
{
  "Postcode": "KY4",
  "Region": "Kirkcaldy",
  "Zone": "Red",
  "Postcode_group": "KY"
},
{
  "Postcode": "GY68",
  "Region": "Guernsey",
  "Zone": "Red",
  "Postcode_group": "GY"
},
{
  "Postcode": "HS2",
  "Region": "Outer Hebrides",
  "Zone": "Red",
  "Postcode_group": "HS"
},
{
  "Postcode": "HS5",
  "Region": "Outer Hebrides",
  "Zone": "Red",
  "Postcode_group": "HS"
},
{
  "Postcode": "HS9",
  "Region": "Outer Hebrides",
  "Zone": "Red",
  "Postcode_group": "HS"
},
{
  "Postcode": "IV18",
  "Region": "Inverness",
  "Zone": "Red",
  "Postcode_group": "IV"
},
{
  "Postcode": "IV8",
  "Region": "Inverness",
  "Zone": "Red",
  "Postcode_group": "IV"
},
{
  "Postcode": "JE31",
  "Region": "Jersey",
  "Zone": "Red",
  "Postcode_group": "JE"
},
{
  "Postcode": "GY35",
  "Region": "Guernsey",
  "Zone": "Red",
  "Postcode_group": "GY"
},
{
  "Postcode": "HS8",
  "Region": "Outer Hebrides",
  "Zone": "Red",
  "Postcode_group": "HS"
},
{
  "Postcode": "IV2",
  "Region": "Inverness",
  "Zone": "Red",
  "Postcode_group": "IV"
},
{
  "Postcode": "IV22",
  "Region": "Inverness",
  "Zone": "Red",
  "Postcode_group": "IV"
},
{
  "Postcode": "IV36",
  "Region": "Inverness",
  "Zone": "Red",
  "Postcode_group": "IV"
},
{
  "Postcode": "IV55",
  "Region": "Inverness",
  "Zone": "Red",
  "Postcode_group": "IV"
},
{
  "Postcode": "IV9",
  "Region": "Inverness",
  "Zone": "Red",
  "Postcode_group": "IV"
},
{
  "Postcode": "JE32",
  "Region": "Jersey",
  "Zone": "Red",
  "Postcode_group": "JE"
},
{
  "Postcode": "JE33",
  "Region": "Jersey",
  "Zone": "Red",
  "Postcode_group": "JE"
},
{
  "Postcode": "JE39",
  "Region": "Jersey",
  "Zone": "Red",
  "Postcode_group": "JE"
},
{
  "Postcode": "IV63",
  "Region": "Inverness",
  "Zone": "Red",
  "Postcode_group": "IV"
},
{
  "Postcode": "JE26",
  "Region": "Jersey",
  "Zone": "Red",
  "Postcode_group": "JE"
},
{
  "Postcode": "GY101",
  "Region": "Guernsey",
  "Zone": "Red",
  "Postcode_group": "GY"
},
{
  "Postcode": "IV48",
  "Region": "Inverness",
  "Zone": "Red",
  "Postcode_group": "IV"
},
{
  "Postcode": "IV52",
  "Region": "Inverness",
  "Zone": "Red",
  "Postcode_group": "IV"
},
{
  "Postcode": "GY11",
  "Region": "Guernsey",
  "Zone": "Red",
  "Postcode_group": "GY"
},
{
  "Postcode": "HS7",
  "Region": "Outer Hebrides",
  "Zone": "Red",
  "Postcode_group": "HS"
},
{
  "Postcode": "IV25",
  "Region": "Inverness",
  "Zone": "Red",
  "Postcode_group": "IV"
},
{
  "Postcode": "IV30",
  "Region": "Inverness",
  "Zone": "Red",
  "Postcode_group": "IV"
},
{
  "Postcode": "IV4",
  "Region": "Inverness",
  "Zone": "Red",
  "Postcode_group": "IV"
},
{
  "Postcode": "IV56",
  "Region": "Inverness",
  "Zone": "Red",
  "Postcode_group": "IV"
},
{
  "Postcode": "JE23",
  "Region": "Jersey",
  "Zone": "Red",
  "Postcode_group": "JE"
},
{
  "Postcode": "KW11",
  "Region": "Kirkwall",
  "Zone": "Red",
  "Postcode_group": "KW"
},
{
  "Postcode": "KW13",
  "Region": "Kirkwall",
  "Zone": "Red",
  "Postcode_group": "KW"
},
{
  "Postcode": "KY6",
  "Region": "Kirkcaldy",
  "Zone": "Red",
  "Postcode_group": "KY"
},
{
  "Postcode": "KW2",
  "Region": "Kirkwall",
  "Zone": "Red",
  "Postcode_group": "KW"
},
{
  "Postcode": "KY1",
  "Region": "Kirkcaldy",
  "Zone": "Red",
  "Postcode_group": "KY"
},
{
  "Postcode": "KY5",
  "Region": "Kirkcaldy",
  "Zone": "Red",
  "Postcode_group": "KY"
},
{
  "Postcode": "GY79",
  "Region": "Guernsey",
  "Zone": "Red",
  "Postcode_group": "GY"
},
{
  "Postcode": "HS6",
  "Region": "Outer Hebrides",
  "Zone": "Red",
  "Postcode_group": "HS"
},
{
  "Postcode": "IV24",
  "Region": "Inverness",
  "Zone": "Red",
  "Postcode_group": "IV"
},
{
  "Postcode": "IV41",
  "Region": "Inverness",
  "Zone": "Red",
  "Postcode_group": "IV"
},
{
  "Postcode": "KY12",
  "Region": "Kirkcaldy",
  "Zone": "Red",
  "Postcode_group": "KY"
},
{
  "Postcode": "KY7",
  "Region": "Kirkcaldy",
  "Zone": "Red",
  "Postcode_group": "KY"
},
{
  "Postcode": "HS3",
  "Region": "Outer Hebrides",
  "Zone": "Red",
  "Postcode_group": "HS"
},
{
  "Postcode": "IV16",
  "Region": "Inverness",
  "Zone": "Red",
  "Postcode_group": "IV"
},
{
  "Postcode": "IV21",
  "Region": "Inverness",
  "Zone": "Red",
  "Postcode_group": "IV"
},
{
  "Postcode": "IV28",
  "Region": "Inverness",
  "Zone": "Red",
  "Postcode_group": "IV"
},
{
  "Postcode": "IV3",
  "Region": "Inverness",
  "Zone": "Red",
  "Postcode_group": "IV"
},
{
  "Postcode": "IV42",
  "Region": "Inverness",
  "Zone": "Red",
  "Postcode_group": "IV"
},
{
  "Postcode": "IV47",
  "Region": "Inverness",
  "Zone": "Red",
  "Postcode_group": "IV"
},
{
  "Postcode": "KW10",
  "Region": "Kirkwall",
  "Zone": "Red",
  "Postcode_group": "KW"
},
{
  "Postcode": "KW17",
  "Region": "Kirkwall",
  "Zone": "Red",
  "Postcode_group": "KW"
},
{
  "Postcode": "PA45",
  "Region": "Paisley",
  "Zone": "Red",
  "Postcode_group": "PA"
},
{
  "Postcode": "PA63",
  "Region": "Paisley",
  "Zone": "Red",
  "Postcode_group": "PA"
},
{
  "Postcode": "PA20",
  "Region": "Paisley",
  "Zone": "Red",
  "Postcode_group": "PA"
},
{
  "Postcode": "PA28",
  "Region": "Paisley",
  "Zone": "Red",
  "Postcode_group": "PA"
},
{
  "Postcode": "PA66",
  "Region": "Paisley",
  "Zone": "Red",
  "Postcode_group": "PA"
},
{
  "Postcode": "PH14",
  "Region": "Perth",
  "Zone": "Red",
  "Postcode_group": "PH"
},
{
  "Postcode": "PH8",
  "Region": "Perth",
  "Zone": "Red",
  "Postcode_group": "PH"
},
{
  "Postcode": "PA12",
  "Region": "Paisley",
  "Zone": "Red",
  "Postcode_group": "PA"
},
{
  "Postcode": "PA24",
  "Region": "Paisley",
  "Zone": "Red",
  "Postcode_group": "PA"
},
{
  "Postcode": "PA37",
  "Region": "Paisley",
  "Zone": "Red",
  "Postcode_group": "PA"
},
{
  "Postcode": "PH21",
  "Region": "Perth",
  "Zone": "Red",
  "Postcode_group": "PH"
},
{
  "Postcode": "PH42",
  "Region": "Perth",
  "Zone": "Red",
  "Postcode_group": "PH"
},
{
  "Postcode": "PH7",
  "Region": "Perth",
  "Zone": "Red",
  "Postcode_group": "PH"
},
{
  "Postcode": "PA21",
  "Region": "Paisley",
  "Zone": "Red",
  "Postcode_group": "PA"
},
{
  "Postcode": "PA60",
  "Region": "Paisley",
  "Zone": "Red",
  "Postcode_group": "PA"
},
{
  "Postcode": "PA67",
  "Region": "Paisley",
  "Zone": "Red",
  "Postcode_group": "PA"
},
{
  "Postcode": "PA7",
  "Region": "Paisley",
  "Zone": "Red",
  "Postcode_group": "PA"
},
{
  "Postcode": "PA70",
  "Region": "Paisley",
  "Zone": "Red",
  "Postcode_group": "PA"
},
{
  "Postcode": "PH41",
  "Region": "Perth",
  "Zone": "Red",
  "Postcode_group": "PH"
},
{
  "Postcode": "PA15",
  "Region": "Paisley",
  "Zone": "Red",
  "Postcode_group": "PA"
},
{
  "Postcode": "PA32",
  "Region": "Paisley",
  "Zone": "Red",
  "Postcode_group": "PA"
},
{
  "Postcode": "PA78",
  "Region": "Paisley",
  "Zone": "Red",
  "Postcode_group": "PA"
},
{
  "Postcode": "PH15",
  "Region": "Perth",
  "Zone": "Red",
  "Postcode_group": "PH"
},
{
  "Postcode": "PH16",
  "Region": "Perth",
  "Zone": "Red",
  "Postcode_group": "PH"
},
{
  "Postcode": "PA25",
  "Region": "Paisley",
  "Zone": "Red",
  "Postcode_group": "PA"
},
{
  "Postcode": "PA31",
  "Region": "Paisley",
  "Zone": "Red",
  "Postcode_group": "PA"
},
{
  "Postcode": "PA36",
  "Region": "Paisley",
  "Zone": "Red",
  "Postcode_group": "PA"
},
{
  "Postcode": "PA42",
  "Region": "Paisley",
  "Zone": "Red",
  "Postcode_group": "PA"
},
{
  "Postcode": "PA68",
  "Region": "Paisley",
  "Zone": "Red",
  "Postcode_group": "PA"
},
{
  "Postcode": "PA72",
  "Region": "Paisley",
  "Zone": "Red",
  "Postcode_group": "PA"
},
{
  "Postcode": "PH9",
  "Region": "Perth",
  "Zone": "Red",
  "Postcode_group": "PH"
},
{
  "Postcode": "PA77",
  "Region": "Paisley",
  "Zone": "Red",
  "Postcode_group": "PA"
},
{
  "Postcode": "PH23",
  "Region": "Perth",
  "Zone": "Red",
  "Postcode_group": "PH"
},
{
  "Postcode": "PH32",
  "Region": "Perth",
  "Zone": "Red",
  "Postcode_group": "PH"
},
{
  "Postcode": "PH5",
  "Region": "Perth",
  "Zone": "Red",
  "Postcode_group": "PH"
},
{
  "Postcode": "PA74",
  "Region": "Paisley",
  "Zone": "Red",
  "Postcode_group": "PA"
},
{
  "Postcode": "PH17",
  "Region": "Perth",
  "Zone": "Red",
  "Postcode_group": "PH"
},
{
  "Postcode": "PH18",
  "Region": "Perth",
  "Zone": "Red",
  "Postcode_group": "PH"
},
{
  "Postcode": "PH30",
  "Region": "Perth",
  "Zone": "Red",
  "Postcode_group": "PH"
},
{
  "Postcode": "PA71",
  "Region": "Paisley",
  "Zone": "Red",
  "Postcode_group": "PA"
},
{
  "Postcode": "PA22",
  "Region": "Paisley",
  "Zone": "Red",
  "Postcode_group": "PA"
},
{
  "Postcode": "PA48",
  "Region": "Paisley",
  "Zone": "Red",
  "Postcode_group": "PA"
},
{
  "Postcode": "PA75",
  "Region": "Paisley",
  "Zone": "Red",
  "Postcode_group": "PA"
},
{
  "Postcode": "PH31",
  "Region": "Perth",
  "Zone": "Red",
  "Postcode_group": "PH"
},
{
  "Postcode": "PH6",
  "Region": "Perth",
  "Zone": "Red",
  "Postcode_group": "PH"
},
{
  "Postcode": "PH24",
  "Region": "Perth",
  "Zone": "Red",
  "Postcode_group": "PH"
},
{
  "Postcode": "PH34",
  "Region": "Perth",
  "Zone": "Red",
  "Postcode_group": "PH"
},
{
  "Postcode": "PH4",
  "Region": "Perth",
  "Zone": "Red",
  "Postcode_group": "PH"
},
{
  "Postcode": "PH49",
  "Region": "Perth",
  "Zone": "Red",
  "Postcode_group": "PH"
},
{
  "Postcode": "GY46",
  "Region": "Guernsey",
  "Zone": "Red",
  "Postcode_group": "GY"
},
{
  "Postcode": "IV20",
  "Region": "Inverness",
  "Zone": "Red",
  "Postcode_group": "IV"
},
{
  "Postcode": "IV31",
  "Region": "Inverness",
  "Zone": "Red",
  "Postcode_group": "IV"
},
{
  "Postcode": "IV44",
  "Region": "Inverness",
  "Zone": "Red",
  "Postcode_group": "IV"
},
{
  "Postcode": "KW1",
  "Region": "Kirkwall",
  "Zone": "Red",
  "Postcode_group": "KW"
},
{
  "Postcode": "GY12",
  "Region": "Guernsey",
  "Zone": "Red",
  "Postcode_group": "GY"
},
{
  "Postcode": "IV10",
  "Region": "Inverness",
  "Zone": "Red",
  "Postcode_group": "IV"
},
{
  "Postcode": "IV12",
  "Region": "Inverness",
  "Zone": "Red",
  "Postcode_group": "IV"
},
{
  "Postcode": "IV17",
  "Region": "Inverness",
  "Zone": "Red",
  "Postcode_group": "IV"
},
{
  "Postcode": "IV51",
  "Region": "Inverness",
  "Zone": "Red",
  "Postcode_group": "IV"
},
{
  "Postcode": "IV6",
  "Region": "Inverness",
  "Zone": "Red",
  "Postcode_group": "IV"
},
{
  "Postcode": "JE24",
  "Region": "Jersey",
  "Zone": "Red",
  "Postcode_group": "JE"
},
{
  "Postcode": "JE34",
  "Region": "Jersey",
  "Zone": "Red",
  "Postcode_group": "JE"
},
{
  "Postcode": "JE36",
  "Region": "Jersey",
  "Zone": "Red",
  "Postcode_group": "JE"
},
{
  "Postcode": "HS4",
  "Region": "Outer Hebrides",
  "Zone": "Red",
  "Postcode_group": "HS"
},
{
  "Postcode": "IV15",
  "Region": "Inverness",
  "Zone": "Red",
  "Postcode_group": "IV"
},
{
  "Postcode": "IV40",
  "Region": "Inverness",
  "Zone": "Red",
  "Postcode_group": "IV"
},
{
  "Postcode": "IV46",
  "Region": "Inverness",
  "Zone": "Red",
  "Postcode_group": "IV"
},
{
  "Postcode": "JE27",
  "Region": "Jersey",
  "Zone": "Red",
  "Postcode_group": "JE"
},
{
  "Postcode": "JE37",
  "Region": "Jersey",
  "Zone": "Red",
  "Postcode_group": "JE"
},
{
  "Postcode": "KY10",
  "Region": "Kirkcaldy",
  "Zone": "Red",
  "Postcode_group": "KY"
},
{
  "Postcode": "KY15",
  "Region": "Kirkcaldy",
  "Zone": "Red",
  "Postcode_group": "KY"
},
{
  "Postcode": "IV43",
  "Region": "Inverness",
  "Zone": "Red",
  "Postcode_group": "IV"
},
{
  "Postcode": "IV54",
  "Region": "Inverness",
  "Zone": "Red",
  "Postcode_group": "IV"
},
{
  "Postcode": "IV7",
  "Region": "Inverness",
  "Zone": "Red",
  "Postcode_group": "IV"
},
{
  "Postcode": "KY2",
  "Region": "Kirkcaldy",
  "Zone": "Red",
  "Postcode_group": "KY"
},
{
  "Postcode": "GY24",
  "Region": "Guernsey",
  "Zone": "Red",
  "Postcode_group": "GY"
},
{
  "Postcode": "GY93",
  "Region": "Guernsey",
  "Zone": "Red",
  "Postcode_group": "GY"
},
{
  "Postcode": "IV11",
  "Region": "Inverness",
  "Zone": "Red",
  "Postcode_group": "IV"
},
{
  "Postcode": "IV23",
  "Region": "Inverness",
  "Zone": "Red",
  "Postcode_group": "IV"
},
{
  "Postcode": "IV32",
  "Region": "Inverness",
  "Zone": "Red",
  "Postcode_group": "IV"
},
{
  "Postcode": "IV1",
  "Region": "Inverness",
  "Zone": "Red",
  "Postcode_group": "IV"
},
{
  "Postcode": "IV13",
  "Region": "Inverness",
  "Zone": "Red",
  "Postcode_group": "IV"
},
{
  "Postcode": "KW15",
  "Region": "Kirkwall",
  "Zone": "Red",
  "Postcode_group": "KW"
},
{
  "Postcode": "KW3",
  "Region": "Kirkwall",
  "Zone": "Red",
  "Postcode_group": "KW"
},
{
  "Postcode": "KW8",
  "Region": "Kirkwall",
  "Zone": "Red",
  "Postcode_group": "KW"
},
{
  "Postcode": "KY14",
  "Region": "Kirkcaldy",
  "Zone": "Red",
  "Postcode_group": "KY"
},
{
  "Postcode": "KW14",
  "Region": "Kirkwall",
  "Zone": "Red",
  "Postcode_group": "KW"
},
{
  "Postcode": "KW9",
  "Region": "Kirkwall",
  "Zone": "Red",
  "Postcode_group": "KW"
},
{
  "Postcode": "GY57",
  "Region": "Guernsey",
  "Zone": "Red",
  "Postcode_group": "GY"
},
{
  "Postcode": "GY80",
  "Region": "Guernsey",
  "Zone": "Red",
  "Postcode_group": "GY"
},
{
  "Postcode": "IV19",
  "Region": "Inverness",
  "Zone": "Red",
  "Postcode_group": "IV"
},
{
  "Postcode": "IV26",
  "Region": "Inverness",
  "Zone": "Red",
  "Postcode_group": "IV"
},
{
  "Postcode": "IV45",
  "Region": "Inverness",
  "Zone": "Red",
  "Postcode_group": "IV"
},
{
  "Postcode": "IV5",
  "Region": "Inverness",
  "Zone": "Red",
  "Postcode_group": "IV"
},
{
  "Postcode": "IV53",
  "Region": "Inverness",
  "Zone": "Red",
  "Postcode_group": "IV"
},
{
  "Postcode": "JE35",
  "Region": "Jersey",
  "Zone": "Red",
  "Postcode_group": "JE"
},
{
  "Postcode": "KW12",
  "Region": "Kirkwall",
  "Zone": "Red",
  "Postcode_group": "KW"
},
{
  "Postcode": "KW5",
  "Region": "Kirkwall",
  "Zone": "Red",
  "Postcode_group": "KW"
},
{
  "Postcode": "KW7",
  "Region": "Kirkwall",
  "Zone": "Red",
  "Postcode_group": "KW"
},
{
  "Postcode": "KY11",
  "Region": "Kirkcaldy",
  "Zone": "Red",
  "Postcode_group": "KY"
},
{
  "Postcode": "KY13",
  "Region": "Kirkcaldy",
  "Zone": "Red",
  "Postcode_group": "KY"
},
{
  "Postcode": "KY3",
  "Region": "Kirkcaldy",
  "Zone": "Red",
  "Postcode_group": "KY"
},
{
  "Postcode": "KY8",
  "Region": "Kirkcaldy",
  "Zone": "Red",
  "Postcode_group": "KY"
},
{
  "Postcode": "KY9",
  "Region": "Kirkcaldy",
  "Zone": "Red",
  "Postcode_group": "KY"
},
{
  "Postcode": "IV14",
  "Region": "Inverness",
  "Zone": "Red",
  "Postcode_group": "IV"
},
{
  "Postcode": "IV27",
  "Region": "Inverness",
  "Zone": "Red",
  "Postcode_group": "IV"
},
{
  "Postcode": "PA14",
  "Region": "Paisley",
  "Zone": "Red",
  "Postcode_group": "PA"
},
{
  "Postcode": "PA2",
  "Region": "Paisley",
  "Zone": "Red",
  "Postcode_group": "PA"
},
{
  "Postcode": "PA27",
  "Region": "Paisley",
  "Zone": "Red",
  "Postcode_group": "PA"
},
{
  "Postcode": "PA61",
  "Region": "Paisley",
  "Zone": "Red",
  "Postcode_group": "PA"
},
{
  "Postcode": "PA64",
  "Region": "Paisley",
  "Zone": "Red",
  "Postcode_group": "PA"
},
{
  "Postcode": "PA76",
  "Region": "Paisley",
  "Zone": "Red",
  "Postcode_group": "PA"
},
{
  "Postcode": "PH19",
  "Region": "Perth",
  "Zone": "Red",
  "Postcode_group": "PH"
},
{
  "Postcode": "PH36",
  "Region": "Perth",
  "Zone": "Red",
  "Postcode_group": "PH"
},
{
  "Postcode": "PA44",
  "Region": "Paisley",
  "Zone": "Red",
  "Postcode_group": "PA"
},
{
  "Postcode": "PH12",
  "Region": "Perth",
  "Zone": "Red",
  "Postcode_group": "PH"
},
{
  "Postcode": "PA11",
  "Region": "Paisley",
  "Zone": "Red",
  "Postcode_group": "PA"
},
{
  "Postcode": "PA62",
  "Region": "Paisley",
  "Zone": "Red",
  "Postcode_group": "PA"
},
{
  "Postcode": "PA65",
  "Region": "Paisley",
  "Zone": "Red",
  "Postcode_group": "PA"
},
{
  "Postcode": "PH10",
  "Region": "Perth",
  "Zone": "Red",
  "Postcode_group": "PH"
},
{
  "Postcode": "PH13",
  "Region": "Perth",
  "Zone": "Red",
  "Postcode_group": "PH"
},
{
  "Postcode": "PH44",
  "Region": "Perth",
  "Zone": "Red",
  "Postcode_group": "PH"
},
{
  "Postcode": "PA13",
  "Region": "Paisley",
  "Zone": "Red",
  "Postcode_group": "PA"
},
{
  "Postcode": "PA18",
  "Region": "Paisley",
  "Zone": "Red",
  "Postcode_group": "PA"
},
{
  "Postcode": "PA26",
  "Region": "Paisley",
  "Zone": "Red",
  "Postcode_group": "PA"
},
{
  "Postcode": "PA3",
  "Region": "Paisley",
  "Zone": "Red",
  "Postcode_group": "PA"
},
{
  "Postcode": "PA5",
  "Region": "Paisley",
  "Zone": "Red",
  "Postcode_group": "PA"
},
{
  "Postcode": "PH26",
  "Region": "Perth",
  "Zone": "Red",
  "Postcode_group": "PH"
},
{
  "Postcode": "PH35",
  "Region": "Perth",
  "Zone": "Red",
  "Postcode_group": "PH"
},
{
  "Postcode": "PH38",
  "Region": "Perth",
  "Zone": "Red",
  "Postcode_group": "PH"
},
{
  "Postcode": "PH50",
  "Region": "Perth",
  "Zone": "Red",
  "Postcode_group": "PH"
},
{
  "Postcode": "PA16",
  "Region": "Paisley",
  "Zone": "Red",
  "Postcode_group": "PA"
},
{
  "Postcode": "PA19",
  "Region": "Paisley",
  "Zone": "Red",
  "Postcode_group": "PA"
},
{
  "Postcode": "PA35",
  "Region": "Paisley",
  "Zone": "Red",
  "Postcode_group": "PA"
},
{
  "Postcode": "PA46",
  "Region": "Paisley",
  "Zone": "Red",
  "Postcode_group": "PA"
},
{
  "Postcode": "PA49",
  "Region": "Paisley",
  "Zone": "Red",
  "Postcode_group": "PA"
},
{
  "Postcode": "PA29",
  "Region": "Paisley",
  "Zone": "Red",
  "Postcode_group": "PA"
},
{
  "Postcode": "PH2",
  "Region": "Perth",
  "Zone": "Red",
  "Postcode_group": "PH"
},
{
  "Postcode": "PH33",
  "Region": "Perth",
  "Zone": "Red",
  "Postcode_group": "PH"
},
{
  "Postcode": "PH43",
  "Region": "Perth",
  "Zone": "Red",
  "Postcode_group": "PH"
},
{
  "Postcode": "PA1",
  "Region": "Paisley",
  "Zone": "Red",
  "Postcode_group": "PA"
},
{
  "Postcode": "PA10",
  "Region": "Paisley",
  "Zone": "Red",
  "Postcode_group": "PA"
},
{
  "Postcode": "PA30",
  "Region": "Paisley",
  "Zone": "Red",
  "Postcode_group": "PA"
},
{
  "Postcode": "PA4",
  "Region": "Paisley",
  "Zone": "Red",
  "Postcode_group": "PA"
},
{
  "Postcode": "PA23",
  "Region": "Paisley",
  "Zone": "Red",
  "Postcode_group": "PA"
},
{
  "Postcode": "PA33",
  "Region": "Paisley",
  "Zone": "Red",
  "Postcode_group": "PA"
},
{
  "Postcode": "PA34",
  "Region": "Paisley",
  "Zone": "Red",
  "Postcode_group": "PA"
},
{
  "Postcode": "PA41",
  "Region": "Paisley",
  "Zone": "Red",
  "Postcode_group": "PA"
},
{
  "Postcode": "PA47",
  "Region": "Paisley",
  "Zone": "Red",
  "Postcode_group": "PA"
},
{
  "Postcode": "PA6",
  "Region": "Paisley",
  "Zone": "Red",
  "Postcode_group": "PA"
},
{
  "Postcode": "PA69",
  "Region": "Paisley",
  "Zone": "Red",
  "Postcode_group": "PA"
},
{
  "Postcode": "PA8",
  "Region": "Paisley",
  "Zone": "Red",
  "Postcode_group": "PA"
},
{
  "Postcode": "PA80",
  "Region": "Paisley",
  "Zone": "Red",
  "Postcode_group": "PA"
},
{
  "Postcode": "PH11",
  "Region": "Perth",
  "Zone": "Red",
  "Postcode_group": "PH"
},
{
  "Postcode": "PH22",
  "Region": "Perth",
  "Zone": "Red",
  "Postcode_group": "PH"
},
{
  "Postcode": "PH3",
  "Region": "Perth",
  "Zone": "Red",
  "Postcode_group": "PH"
},
{
  "Postcode": "PA43",
  "Region": "Paisley",
  "Zone": "Red",
  "Postcode_group": "PA"
},
{
  "Postcode": "PA73",
  "Region": "Paisley",
  "Zone": "Red",
  "Postcode_group": "PA"
},
{
  "Postcode": "PH25",
  "Region": "Perth",
  "Zone": "Red",
  "Postcode_group": "PH"
},
{
  "Postcode": "PH37",
  "Region": "Perth",
  "Zone": "Red",
  "Postcode_group": "PH"
},
{
  "Postcode": "PA9",
  "Region": "Paisley",
  "Zone": "Red",
  "Postcode_group": "PA"
},
{
  "Postcode": "PH1",
  "Region": "Perth",
  "Zone": "Red",
  "Postcode_group": "PH"
},
{
  "Postcode": "PH20",
  "Region": "Perth",
  "Zone": "Red",
  "Postcode_group": "PH"
},
{
  "Postcode": "PH39",
  "Region": "Perth",
  "Zone": "Red",
  "Postcode_group": "PH"
},
{
  "Postcode": "PH40",
  "Region": "Perth",
  "Zone": "Red",
  "Postcode_group": "PH"
},
{
  "Postcode": "TR11",
  "Region": "Truro",
  "Zone": "Red",
  "Postcode_group": "TR"
},
{
  "Postcode": "TR5",
  "Region": "Truro",
  "Zone": "Red",
  "Postcode_group": "TR"
},
{
  "Postcode": "TR2",
  "Region": "Truro",
  "Zone": "Red",
  "Postcode_group": "TR"
},
{
  "Postcode": "PO40",
  "Region": "Isle of Wight",
  "Zone": "Red",
  "Postcode_group": "PO4"
},
{
  "Postcode": "PO36",
  "Region": "Isle of Wight",
  "Zone": "Red",
  "Postcode_group": "PO3"
},
{
  "Postcode": "TR7",
  "Region": "Truro",
  "Zone": "Red",
  "Postcode_group": "TR"
},
{
  "Postcode": "TR12",
  "Region": "Truro",
  "Zone": "Red",
  "Postcode_group": "TR"
},
{
  "Postcode": "TR13",
  "Region": "Truro",
  "Zone": "Red",
  "Postcode_group": "TR"
},
{
  "Postcode": "TR16",
  "Region": "Truro",
  "Zone": "Red",
  "Postcode_group": "TR"
},
{
  "Postcode": "TR17",
  "Region": "Truro",
  "Zone": "Red",
  "Postcode_group": "TR"
},
{
  "Postcode": "TR20",
  "Region": "Truro",
  "Zone": "Red",
  "Postcode_group": "TR"
},
{
  "Postcode": "PO34",
  "Region": "Isle of Wight",
  "Zone": "Red",
  "Postcode_group": "PO3"
},
{
  "Postcode": "PO35",
  "Region": "Isle of Wight",
  "Zone": "Red",
  "Postcode_group": "PO3"
},
{
  "Postcode": "PO37",
  "Region": "Isle of Wight",
  "Zone": "Red",
  "Postcode_group": "PO3"
},
{
  "Postcode": "TR26",
  "Region": "Truro",
  "Zone": "Red",
  "Postcode_group": "TR"
},
{
  "Postcode": "TR8",
  "Region": "Truro",
  "Zone": "Red",
  "Postcode_group": "TR"
},
{
  "Postcode": "TR1",
  "Region": "Truro",
  "Zone": "Red",
  "Postcode_group": "TR"
},
{
  "Postcode": "TR18",
  "Region": "Truro",
  "Zone": "Red",
  "Postcode_group": "TR"
},
{
  "Postcode": "TR22",
  "Region": "Truro",
  "Zone": "Red",
  "Postcode_group": "TR"
},
{
  "Postcode": "TR24",
  "Region": "Truro",
  "Zone": "Red",
  "Postcode_group": "TR"
},
{
  "Postcode": "TR25",
  "Region": "Truro",
  "Zone": "Red",
  "Postcode_group": "TR"
},
{
  "Postcode": "TR3",
  "Region": "Truro",
  "Zone": "Red",
  "Postcode_group": "TR"
},
{
  "Postcode": "TR14",
  "Region": "Truro",
  "Zone": "Red",
  "Postcode_group": "TR"
},
{
  "Postcode": "TR9",
  "Region": "Truro",
  "Zone": "Red",
  "Postcode_group": "TR"
},
{
  "Postcode": "TR15",
  "Region": "Truro",
  "Zone": "Red",
  "Postcode_group": "TR"
},
{
  "Postcode": "TR27",
  "Region": "Truro",
  "Zone": "Red",
  "Postcode_group": "TR"
},
{
  "Postcode": "AB10",
  "Region": "Aberdeen",
  "Zone": "Red",
  "Postcode_group": "AB"
},
{
  "Postcode": "PO30",
  "Region": "Isle of Wight",
  "Zone": "Red",
  "Postcode_group": "PO3"
},
{
  "Postcode": "PO33",
  "Region": "Isle of Wight",
  "Zone": "Red",
  "Postcode_group": "PO3"
},
{
  "Postcode": "PO38",
  "Region": "Isle of Wight",
  "Zone": "Red",
  "Postcode_group": "PO3"
},
{
  "Postcode": "TR4",
  "Region": "Truro",
  "Zone": "Red",
  "Postcode_group": "TR"
},
{
  "Postcode": "PO41",
  "Region": "Isle of Wight",
  "Zone": "Red",
  "Postcode_group": "PO4"
},
{
  "Postcode": "PO39",
  "Region": "Isle of Wight",
  "Zone": "Red",
  "Postcode_group": "PO3"
},
{
  "Postcode": "TR23",
  "Region": "Truro",
  "Zone": "Red",
  "Postcode_group": "TR"
},
{
  "Postcode": "TR19",
  "Region": "Truro",
  "Zone": "Red",
  "Postcode_group": "TR"
},
{
  "Postcode": "TR6",
  "Region": "Truro",
  "Zone": "Red",
  "Postcode_group": "TR"
},
{
  "Postcode": "PO31",
  "Region": "Isle of Wight",
  "Zone": "Red",
  "Postcode_group": "PO3"
},
{
  "Postcode": "PO32",
  "Region": "Isle of Wight",
  "Zone": "Red",
  "Postcode_group": "PO3"
},
{
  "Postcode": "TR10",
  "Region": "Truro",
  "Zone": "Red",
  "Postcode_group": "TR"
},
{
  "Postcode": "TR21",
  "Region": "Truro",
  "Zone": "Red",
  "Postcode_group": "TR"
}]